NORAD_CAT_ID,OBJECT_NAME,OBJECT_TYPE,EPOCH,MEAN_MOTION,ECCENTRICITY,INCLINATION,RA_OF_ASC_NODE,ARG_OF_PERICENTER,MEAN_ANOMALY,BSTAR,MEAN_MOTION_DOT,MEAN_MOTION_DDOT,TLE_LINE0,TLE_LINE1,TLE_LINE2,SEMIMAJOR_AXIS,PERIOD,APOGEE,PERIGEE,DECAYED
54051.0,STARLINK-5195,PAYLOAD,2023-11-24 11:54:06,15.08852876,0.0001601,53.2158,138.1819,98.9285,261.1889,-0.00018033,-3.158e-05,0.0,0 STARLINK-5195,1 54051U 22136A   23328.49591022 -.00003158  00000-0 -18033-3 0  9996,2 54051  53.2158 138.1819 0001601  98.9285 261.1889 15.08852876 60608,6917.841,95.437,540.814,538.598,0.0
54051.0,STARLINK-5195,PAYLOAD,2023-11-24 18:15:39,15.08841734,0.0001368,53.2158,136.9942,92.7301,267.3848,3.5309e-05,2.74e-06,0.0,0 STARLINK-5195,1 54051U 22136A   23328.76086921  .00000274  00000-0  35309-4 0  9993,2 54051  53.2158 136.9942 0001368  92.7301 267.3848 15.08841734 61124,6917.875,95.437,540.686,538.794,0.0
54051.0,STARLINK-5195,PAYLOAD,2023-11-24 21:26:25,15.08842527,0.0001372,53.2158,136.3992,94.2193,265.8956,3.888e-05,3.31e-06,0.0,0 STARLINK-5195,1 54051U 22136A   23328.89334837  .00000331  00000-0  38880-4 0  9990,2 54051  53.2158 136.3992 0001372  94.2193 265.8956 15.08842527 60666,6917.873,95.437,540.687,538.789,0.0
54051.0,STARLINK-5195,PAYLOAD,2023-11-25 21:17:12,15.08843839,0.0001381,53.2163,131.9375,96.1182,263.9967,0.0001395,1.933e-05,0.0,0 STARLINK-5195,1 54051U 22136A   23329.88694697  .00001933  00000-0  13950-3 0  9992,2 54051  53.2163 131.9375 0001381  96.1182 263.9967 15.08843839 60812,6917.869,95.437,540.689,538.778,0.0
54051.0,STARLINK-5195,PAYLOAD,2023-11-26 11:35:40,15.08844614,0.0001513,53.2172,129.261,105.024,255.092,8.4226e-05,1.053e-05,0.0,0 STARLINK-5195,1 54051U 22136A   23330.48310693  .00001053  00000-0  84226-4 0  9999,2 54051  53.2172 129.2610 0001513 105.0240 255.0920 15.08844614 60909,6917.866,95.437,540.778,538.685,0.0
54051.0,STARLINK-5195,PAYLOAD,2023-11-26 16:21:49,15.08845619,0.0001538,53.2174,128.3689,107.246,252.8701,8.772e-05,1.109e-05,0.0,0 STARLINK-5195,1 54051U 22136A   23330.68182540  .00001109  00000-0  87720-4 0  9993,2 54051  53.2174 128.3689 0001538 107.2460 252.8701 15.08845619 60933,6917.863,95.437,540.792,538.664,0.0
54051.0,STARLINK-5195,PAYLOAD,2023-11-27 14:37:14,15.08838574,0.0001582,53.2179,124.2058,109.3894,250.7269,7.6981e-06,-1.65e-06,0.0,0 STARLINK-5195,1 54051U 22136A   23331.60919273 -.00000165  00000-0  76981-5 0  9997,2 54051  53.2179 124.2058 0001582 109.3894 250.7269 15.08838574 61070,6917.885,95.438,540.844,538.655,0.0
54051.0,STARLINK-5195,PAYLOAD,2023-11-27 17:48:00,15.08836637,0.000136,53.2176,123.611,89.532,270.5828,-7.4913e-06,-4.07e-06,0.0,0 STARLINK-5195,1 54051U 22136A   23331.74167528 -.00000407  00000-0 -74913-5 0  9993,2 54051  53.2176 123.6110 0001360  89.5320 270.5828 15.08836637 61570,6917.891,95.438,540.697,538.815,0.0
54051.0,STARLINK-5195,PAYLOAD,2023-11-28 14:28:01,15.08851556,0.000181,53.2177,119.7439,109.2901,250.8287,-0.00020028,-3.475e-05,0.0,0 STARLINK-5195,1 54051U 22136A   23332.60279230 -.00003475  00000-0 -20028-3 0  9997,2 54051  53.2177 119.7439 0001810 109.2901 250.8287 15.08851556 61225,6917.845,95.437,540.962,538.458,0.0
54051.0,STARLINK-5195,PAYLOAD,2023-11-28 19:14:10,15.08845928,0.0001314,53.2173,118.8511,97.5458,262.5683,7.8853e-05,9.67e-06,0.0,0 STARLINK-5195,1 54051U 22136A   23332.80150780  .00000967  00000-0  78853-4 0  9998,2 54051  53.2173 118.8511 0001314  97.5458 262.5683 15.08845928 61739,6917.862,95.437,540.636,538.818,0.0
54051.0,STARLINK-5195,PAYLOAD,2023-11-29 09:32:39,15.08834912,0.0001151,53.2176,116.1741,127.4895,232.6202,3.7236e-05,3.05e-06,0.0,0 STARLINK-5195,1 54051U 22136A   23333.39767780  .00000305  00000-0  37236-4 0  9993,2 54051  53.2176 116.1741 0001151 127.4895 232.6202 15.08834912 61821,6917.896,95.438,540.557,538.965,0.0
54051.0,STARLINK-5195,PAYLOAD,2023-11-29 14:18:48,15.0883478,9.42e-05,53.216,115.2859,102.9607,257.149,0.00017496,2.497e-05,0.0,0 STARLINK-5195,1 54051U 22136A   23333.59639369  .00002497  00000-0  17496-3 0  9995,2 54051  53.2160 115.2859 0000942 102.9607 257.1490 15.08834780 61374,6917.896,95.438,540.413,539.11,0.0
54051.0,STARLINK-5195,PAYLOAD,2023-11-30 15:44:59,15.08838135,0.0001549,53.2167,110.5322,47.5812,312.5311,0.0001192,1.609e-05,0.0,0 STARLINK-5195,1 54051U 22136A   23334.65623950  .00001609  00000-0  11920-3 0  9992,2 54051  53.2167 110.5322 0001549  47.5812 312.5311 15.08838135 62018,6917.886,95.438,540.823,538.68,0.0
54051.0,STARLINK-5195,PAYLOAD,2023-12-01 15:35:45,15.08849693,0.0001218,53.218,106.0693,85.4089,274.7042,2.3243e-05,8.2e-07,0.0,0 STARLINK-5195,1 54051U 22136A   23335.64983275  .00000082  00000-0  23243-4 0  9997,2 54051  53.2180 106.0693 0001218  85.4089 274.7042 15.08849693 61687,6917.851,95.437,540.558,538.873,0.0
54051.0,STARLINK-5195,PAYLOAD,2023-12-02 13:51:09,15.08851093,0.0001377,53.2163,101.9046,91.0116,269.1034,0.00014585,2.035e-05,0.0,0 STARLINK-5195,1 54051U 22136A   23336.57718871  .00002035  00000-0  14585-3 0  9996,2 54051  53.2163 101.9046 0001377  91.0116 269.1034 15.08851093 61826,6917.846,95.437,540.664,538.759,0.0
54051.0,STARLINK-5195,PAYLOAD,2023-12-02 15:26:31,15.08856681,0.0001286,53.2175,101.6073,85.5121,274.6018,0.00016452,2.333e-05,0.0,0 STARLINK-5195,1 54051U 22136A   23336.64342045  .00002333  00000-0  16452-3 0  9996,2 54051  53.2175 101.6073 0001286  85.5121 274.6018 15.08856681 62315,6917.829,95.436,540.584,538.805,0.0
54051.0,STARLINK-5195,PAYLOAD,2023-12-03 12:06:36,15.08812784,0.0001353,53.2177,97.7406,84.9936,275.1211,-0.00024116,-4.121e-05,0.0,0 STARLINK-5195,1 54051U 22136A   23337.50458500 -.00004121  00000-0 -24116-3 0  9991,2 54051  53.2177  97.7406 0001353  84.9936 275.1211 15.08812784 62445,6917.964,95.439,540.765,538.893,0.0
54051.0,STARLINK-5195,PAYLOAD,2023-12-03 13:41:59,15.0881239,0.0001376,53.2174,97.4437,85.1431,274.9718,-0.00023865,-4.081e-05,0.0,0 STARLINK-5195,1 54051U 22136A   23337.57082602 -.00004081  00000-0 -23865-3 0  9999,2 54051  53.2174  97.4437 0001376  85.1431 274.9718 15.08812390 61970,6917.965,95.439,540.782,538.878,0.0
54051.0,STARLINK-5195,PAYLOAD,2023-12-04 11:57:23,15.08768141,0.0001899,53.2185,93.2819,89.0679,271.053,0.0009062,0.00014135,0.0,0 STARLINK-5195,1 54051U 22136A   23338.49818309  .00014135  00000-0  90620-3 0  9994,2 54051  53.2185  93.2819 0001899  89.0679 271.0530 15.08768141 62590,6918.1,95.442,541.279,538.651,0.0
54051.0,STARLINK-5195,PAYLOAD,2023-12-04 13:32:46,15.08750797,0.0001953,53.2185,92.9856,89.0927,271.0288,0.0011247,0.00017613,0.0,0 STARLINK-5195,1 54051U 22136A   23338.56442956  .00017613  00000-0  11247-2 0  9994,2 54051  53.2185  92.9856 0001953  89.0927 271.0288 15.08750797 62121,6918.153,95.443,541.369,538.667,0.0
54051.0,STARLINK-5195,PAYLOAD,2023-12-04 18:18:54,15.08842711,0.0001406,53.2179,92.0912,92.3695,267.7458,-2.5319e-05,-6.91e-06,0.0,0 STARLINK-5195,1 54051U 22136A   23338.76313192 -.00000691  00000-0 -25319-4 0  9992,2 54051  53.2179  92.0912 0001406  92.3695 267.7458 15.08842711 62635,6917.872,95.437,540.71,538.764,0.0
54051.0,STARLINK-5195,PAYLOAD,2023-12-05 13:23:31,15.08842912,0.00015,53.2173,88.5227,96.7934,263.3229,0.00041809,6.373e-05,0.0,0 STARLINK-5195,1 54051U 22136A   23339.55799859  .00006373  00000-0  41809-3 0  9990,2 54051  53.2173  88.5227 0001500  96.7934 263.3229 15.08842912 62278,6917.871,95.437,540.774,538.699,0.0
54051.0,STARLINK-5195,PAYLOAD,2023-12-05 16:34:17,15.08846188,0.0001626,53.2175,87.9272,71.3964,288.7205,0.00043543,6.65e-05,0.0,0 STARLINK-5195,1 54051U 22136A   23339.69047740  .00006650  00000-0  43543-3 0  9995,2 54051  53.2175  87.9272 0001626  71.3964 288.7205 15.08846188 62773,6917.861,95.437,540.851,538.602,0.0
54051.0,STARLINK-5195,PAYLOAD,2023-12-06 11:38:56,15.0884089,0.0001465,53.2172,84.3613,74.587,285.5283,2.5211e-05,1.13e-06,0.0,0 STARLINK-5195,1 54051U 22136A   23340.48537174  .00000113  00000-0  25211-4 0  9990,2 54051  53.2172  84.3613 0001465  74.5870 285.5283 15.08840890 62890,6917.878,95.437,540.756,538.729,0.0
54051.0,STARLINK-5195,PAYLOAD,2023-12-06 13:14:19,15.08842774,0.0001414,53.2178,84.0633,84.8228,275.2926,2.2719e-05,7.4e-07,0.0,0 STARLINK-5195,1 54051U 22136A   23340.55161116  .00000074  00000-0  22719-4 0  9993,2 54051  53.2178  84.0633 0001414  84.8228 275.2926 15.08842774 62422,6917.872,95.437,540.715,538.759,0.0
54051.0,STARLINK-5195,PAYLOAD,2023-12-07 13:05:05,15.08850815,0.0001501,53.2178,79.6051,82.0473,278.069,-0.00014367,-2.574e-05,0.0,0 STARLINK-5195,1 54051U 22136A   23341.54520658 -.00002574  00000-0 -14367-3 0  9991,2 54051  53.2178  79.6051 0001501  82.0473 278.0690 15.08850815 62575,6917.847,95.437,540.751,538.674,0.0
54051.0,STARLINK-5195,PAYLOAD,2023-12-07 16:15:51,15.08852882,0.0001539,53.2176,79.0093,109.0333,251.0826,-0.00010774,-2.003e-05,0.0,0 STARLINK-5195,1 54051U 22136A   23341.67768190 -.00002003  00000-0 -10774-3 0  9995,2 54051  53.2176  79.0093 0001539 109.0333 251.0826 15.08852882 63073,6917.841,95.437,540.771,538.641,0.0
54051.0,STARLINK-5195,PAYLOAD,2023-12-08 11:20:29,15.08837615,0.0001657,53.2194,75.4412,105.9238,254.1937,5.3649e-05,5.66e-06,0.0,0 STARLINK-5195,1 54051U 22136A   23342.47256496  .00000566  00000-0  53649-4 0  9994,2 54051  53.2194  75.4412 0001657 105.9238 254.1937 15.08837615 63195,6917.888,95.438,540.899,538.606,0.0
54051.0,STARLINK-5195,PAYLOAD,2023-12-08 12:55:52,15.08838617,0.0001624,53.2192,75.1438,102.9778,257.1396,6.1408e-05,6.89e-06,0.0,0 STARLINK-5195,1 54051U 22136A   23342.53880432  .00000689  00000-0  61408-4 0  9992,2 54051  53.2192  75.1438 0001624 102.9778 257.1396 15.08838617 62721,6917.885,95.438,540.873,538.626,0.0
54051.0,STARLINK-5195,PAYLOAD,2023-12-08 16:06:38,15.08841686,0.0001535,53.2185,74.5483,101.225,258.8915,8.0018e-05,9.86e-06,0.0,0 STARLINK-5195,1 54051U 22136A   23342.67128165  .00000986  00000-0  80018-4 0  9993,2 54051  53.2185  74.5483 0001535 101.2250 258.8915 15.08841686 62741,6917.875,95.437,540.802,538.678,0.0
